POSTAL_CODE_ID,PostalCode,City,Province,ProvinceCode,CityType,Latitude,Longitude
1,A0E2Z0,Monkstown,Newfoundland,NL,D,47.150300000000001,-55.299500000000002

import datetime
from google.appengine.ext import db
from google.appengine.tools import bulkloader

class PostalCode(db.Model):
  id = db.IntegerProperty()
  postal_code = db.PostalAddressProperty()
  city = db.StringProperty()
  province = db.StringProperty()
  province_code = db.StringProperty()
  city_type = db.StringProperty()
  lat = db.FloatProperty()
  lng = db.FloatProperty()

class PostalCodeLoader(bulkloader.Loader):
  def __init__(self):
    bulkloader.Loader.__init__(self, 'PostalCode',
                               [('id', int),
                                ('postal_code', str),
                                ('city', str),
                                ('province', str),
                                ('province_code', str),
                                ('city_type', str),
                                ('lat', float),
                                ('lng', float)
                               ])

loaders = [PostalCodeLoader]

